{
    "links": {
        "self": "http://www.neowsapp.com/rest/v1/neo/3263616?api_key=iIulBulltgU6a56xZRHN4H3l9WmuAYTsLGpBGhQ2"
    },
    "id": "3263616",
    "neo_reference_id": "3263616",
    "name": "(2004 XP35)",
    "designation": "2004 XP35",
    "nasa_jpl_url": "http://ssd.jpl.nasa.gov/sbdb.cgi?sstr=3263616",
    "absolute_magnitude_h": 23.4,
    "estimated_diameter": {
        "kilometers": {
            "estimated_diameter_min": 0.0555334912,
            "estimated_diameter_max": 0.1241766613
        },
        "meters": {
            "estimated_diameter_min": 55.5334911581,
            "estimated_diameter_max": 124.1766612574
        },
        "miles": {
            "estimated_diameter_min": 0.0345069009,
            "estimated_diameter_max": 0.0771597762
        },
        "feet": {
            "estimated_diameter_min": 182.1964991311,
            "estimated_diameter_max": 407.4037573197
        }
    },
    "is_potentially_hazardous_asteroid": false,
    "close_approach_data": [
        {
            "close_approach_date": "2004-12-07",
            "close_approach_date_full": "2004-Dec-07 13:29",
            "epoch_date_close_approach": 1102426140000,
            "relative_velocity": {
                "kilometers_per_second": "11.1357084812",
                "kilometers_per_hour": "40088.550532171",
                "miles_per_hour": "24909.4663015037"
            },
            "miss_distance": {
                "astronomical": "0.0163360978",
                "lunar": "6.3547420442",
                "kilometers": "2443845.434991686",
                "miles": "1518535.1378938268"
            },
            "orbiting_body": "Earth"
        }
    ],
    "orbital_data": {
        "orbit_id": "14",
        "orbit_determination_date": "2017-04-06 09:11:43",
        "first_observation_date": "2004-12-12",
        "last_observation_date": "2005-01-02",
        "data_arc_in_days": 21,
        "observations_used": 113,
        "orbit_uncertainty": "7",
        "minimum_orbit_intersection": ".0141235",
        "jupiter_tisserand_invariant": "3.626",
        "epoch_osculation": "2459000.5",
        "eccentricity": ".5380925043420074",
        "semi_major_axis": "2.006308741217",
        "inclination": "9.406129821347585",
        "ascending_node_longitude": "80.30553854592169",
        "orbital_period": "1037.994553818299",
        "perihelion_distance": ".9267290461722842",
        "perihelion_argument": "319.9653628896992",
        "aphelion_distance": "3.085888436261717",
        "perihelion_time": "2458516.014559895166",
        "mean_anomaly": "168.0305140293363",
        "mean_motion": ".3468226289586275",
        "equinox": "J2000",
        "orbit_class": {
            "orbit_class_type": "APO",
            "orbit_class_description": "Near-Earth asteroid orbits which cross the Earth’s orbit similar to that of 1862 Apollo",
            "orbit_class_range": "a (semi-major axis) > 1.0 AU; q (perihelion) < 1.017 AU"
        }
    },
    "is_sentry_object": false
}